TIANMU-1 08             
1 57400U 23101B   26066.00237819  .00000346  00000+0  14775-4 0  9993
2 57400  97.2717 118.7901 0006380 134.2174 225.9592 15.29204229146020
STARLINK-31186          
1 59030U 24038H   26068.28444458 -.00001465  00000+0 -43729-4 0  9991
2 59030  43.0056  29.5244 0001163 274.0063  86.0656 15.27572946114696
